start=new Date('2021-12-07T00:00:00.000Z').valueOf();
sats=[{"ELEMENT_SET_NO":"999","EPHEMERIS_TYPE":"0","COUNTRY_CODE":"US","INCLINATION":"53.0552","OBJECT_TYPE":"PAYLOAD","LAUNCH_DATE":"2021-04-29","NORAD_CAT_ID":"48294","MEAN_MOTION_DOT":"-0.00000923","OBJECT_NAME":"STARLINK-2533","SEMIMAJOR_AXIS":"6925.404","REF_FRAME":"TEME","BSTAR":"-0.00004307800000","MEAN_ANOMALY":"277.5047","REV_AT_EPOCH":"3412","MEAN_MOTION_DDOT":"0.0000000000000","ECCENTRICITY":"0.00023590","MEAN_ELEMENT_THEORY":"SGP4","MEAN_MOTION":"15.06382021","TLE_LINE2":"2 48294  53.0552 216.8068 0002359  82.6210 277.5047 15.06382021 34128","TLE_LINE1":"1 48294U 21036U   21340.91246504 -.00000923  00000-0 -43078-4 0  9992","OBJECT_ID":"2021-036U","SITE":"AFETR","APOAPSIS":"548.902","GP_ID":"191234757","RCS_SIZE":"LARGE","PERIOD":"95.593","RA_OF_ASC_NODE":"216.8068","FILE":"3234296","EPOCH":"2021-12-06T21:53:56.979456","CENTER_NAME":"EARTH","PERIAPSIS":"545.635","DECAY_DATE":null,"ARG_OF_PERICENTER":"82.6210","TIME_SYSTEM":"UTC","CLASSIFICATION_TYPE":"U"},{"TIME_SYSTEM":"UTC","CLASSIFICATION_TYPE":"U","DECAY_DATE":null,"ARG_OF_PERICENTER":"72.1085","PERIAPSIS":"545.714","CENTER_NAME":"EARTH","FILE":"3234296","EPOCH":"2021-12-06T21:48:37.897344","RA_OF_ASC_NODE":"216.8174","PERIOD":"95.593","APOAPSIS":"548.766","GP_ID":"191234507","RCS_SIZE":"LARGE","TLE_LINE1":"1 48295U 21036V   21340.90877196  .00001180  00000-0  98126-4 0  9997","OBJECT_ID":"2021-036V","SITE":"AFETR","MEAN_ELEMENT_THEORY":"SGP4","TLE_LINE2":"2 48295  53.0527 216.8174 0002204  72.1085 288.0144 15.06391335 34125","MEAN_MOTION":"15.06391335","ECCENTRICITY":"0.00022040","MEAN_MOTION_DDOT":"0.0000000000000","REV_AT_EPOCH":"3412","MEAN_ANOMALY":"288.0144","SEMIMAJOR_AXIS":"6925.375","REF_FRAME":"TEME","BSTAR":"0.00009812600000","MEAN_MOTION_DOT":"0.00001180","OBJECT_NAME":"STARLINK-2535","NORAD_CAT_ID":"48295","OBJECT_TYPE":"PAYLOAD","LAUNCH_DATE":"2021-04-29","INCLINATION":"53.0527","COUNTRY_CODE":"US","EPHEMERIS_TYPE":"0","ELEMENT_SET_NO":"999"},{"TLE_LINE1":"1 48296U 21036W   21340.37430989  .00001615  00000-0  12738-3 0  9991","OBJECT_ID":"2021-036W","SITE":"AFETR","PERIOD":"95.593","APOAPSIS":"548.711","GP_ID":"191206158","RCS_SIZE":"LARGE","RA_OF_ASC_NODE":"219.2177","CENTER_NAME":"EARTH","FILE":"3234035","EPOCH":"2021-12-06T08:59:00.374496","ARG_OF_PERICENTER":"76.1280","DECAY_DATE":null,"PERIAPSIS":"545.795","TIME_SYSTEM":"UTC","CLASSIFICATION_TYPE":"U","EPHEMERIS_TYPE":"0","ELEMENT_SET_NO":"999","OBJECT_TYPE":"PAYLOAD","LAUNCH_DATE":"2021-04-29","INCLINATION":"53.0541","COUNTRY_CODE":"US","NORAD_CAT_ID":"48296","MEAN_MOTION_DOT":"0.00001615","OBJECT_NAME":"STARLINK-2546","SEMIMAJOR_AXIS":"6925.388","BSTAR":"0.00012738000000","REF_FRAME":"TEME","REV_AT_EPOCH":"3404","MEAN_MOTION_DDOT":"0.0000000000000","MEAN_ANOMALY":"283.9943","ECCENTRICITY":"0.00021050","MEAN_ELEMENT_THEORY":"SGP4","MEAN_MOTION":"15.06387096","TLE_LINE2":"2 48296  53.0541 219.2177 0002105  76.1280 283.9943 15.06387096 34044"},{"CENTER_NAME":"EARTH","FILE":"3234296","EPOCH":"2021-12-06T18:26:56.398848","RA_OF_ASC_NODE":"217.4472","PERIOD":"95.593","APOAPSIS":"548.782","RCS_SIZE":"LARGE","GP_ID":"191235509","TLE_LINE1":"1 48297U 21036X   21340.76870832  .00001187  00000-0  98597-4 0  9992","SITE":"AFETR","OBJECT_ID":"2021-036X","TIME_SYSTEM":"UTC","CLASSIFICATION_TYPE":"U","ARG_OF_PERICENTER":"63.7417","DECAY_DATE":null,"PERIAPSIS":"545.718","MEAN_MOTION_DOT":"0.00001187","OBJECT_NAME":"STARLINK-2544","NORAD_CAT_ID":"48297","OBJECT_TYPE":"PAYLOAD","LAUNCH_DATE":"2021-04-29","INCLINATION":"53.0534","COUNTRY_CODE":"US","EPHEMERIS_TYPE":"0","ELEMENT_SET_NO":"999","MEAN_ELEMENT_THEORY":"SGP4","MEAN_MOTION":"15.06388173","TLE_LINE2":"2 48297  53.0534 217.4472 0002212  63.7417 296.3800 15.06388173 34102","ECCENTRICITY":"0.00022120","MEAN_MOTION_DDOT":"0.0000000000000","REV_AT_EPOCH":"3410","MEAN_ANOMALY":"296.3800","SEMIMAJOR_AXIS":"6925.385","REF_FRAME":"TEME","BSTAR":"0.00009859700000"},{"CLASSIFICATION_TYPE":"U","TIME_SYSTEM":"UTC","PERIAPSIS":"545.858","DECAY_DATE":null,"ARG_OF_PERICENTER":"74.9715","EPOCH":"2021-12-06T15:10:33.038976","FILE":"3234296","CENTER_NAME":"EARTH","RA_OF_ASC_NODE":"218.0597","GP_ID":"191234257","RCS_SIZE":"LARGE","APOAPSIS":"548.642","PERIOD":"95.593","SITE":"AFETR","OBJECT_ID":"2021-036Y","TLE_LINE1":"1 48298U 21036Y   21340.63232684  .00001130  00000-0  94807-4 0  9994","TLE_LINE2":"2 48298  53.0541 218.0597 0002010  74.9715 285.1496 15.06388252 34089","MEAN_MOTION":"15.06388252","MEAN_ELEMENT_THEORY":"SGP4","ECCENTRICITY":"0.00020100","MEAN_ANOMALY":"285.1496","REV_AT_EPOCH":"3408","MEAN_MOTION_DDOT":"0.0000000000000","BSTAR":"0.00009480700000","REF_FRAME":"TEME","SEMIMAJOR_AXIS":"6925.385","OBJECT_NAME":"STARLINK-2559","MEAN_MOTION_DOT":"0.00001130","NORAD_CAT_ID":"48298","COUNTRY_CODE":"US","INCLINATION":"53.0541","LAUNCH_DATE":"2021-04-29","OBJECT_TYPE":"PAYLOAD","ELEMENT_SET_NO":"999","EPHEMERIS_TYPE":"0"},{"ARG_OF_PERICENTER":"73.1200","DECAY_DATE":null,"PERIAPSIS":"545.859","CLASSIFICATION_TYPE":"U","TIME_SYSTEM":"UTC","PERIOD":"95.592","GP_ID":"191205407","RCS_SIZE":"LARGE","APOAPSIS":"548.597","OBJECT_ID":"2021-036Z","SITE":"AFETR","TLE_LINE1":"1 48299U 21036Z   21340.36324345  .00001583  00000-0  12515-3 0  9998","CENTER_NAME":"EARTH","EPOCH":"2021-12-06T08:43:04.234080","FILE":"3234035","RA_OF_ASC_NODE":"219.2648","MEAN_MOTION_DDOT":"0.0000000000000","REV_AT_EPOCH":"3404","MEAN_ANOMALY":"287.0005","REF_FRAME":"TEME","BSTAR":"0.00012515000000","SEMIMAJOR_AXIS":"6925.363","MEAN_MOTION":"15.06395262","TLE_LINE2":"2 48299  53.0573 219.2648 0001977  73.1200 287.0005 15.06395262 34048","MEAN_ELEMENT_THEORY":"SGP4","ECCENTRICITY":"0.00019770","LAUNCH_DATE":"2021-04-29","OBJECT_TYPE":"PAYLOAD","INCLINATION":"53.0573","COUNTRY_CODE":"US","EPHEMERIS_TYPE":"0","ELEMENT_SET_NO":"999","OBJECT_NAME":"STARLINK-2557","MEAN_MOTION_DOT":"0.00001583","NORAD_CAT_ID":"48299"},{"TIME_SYSTEM":"UTC","CLASSIFICATION_TYPE":"U","PERIAPSIS":"545.699","ARG_OF_PERICENTER":"67.4496","DECAY_DATE":null,"FILE":"3234296","EPOCH":"2021-12-06T22:50:59.028576","CENTER_NAME":"EARTH","RA_OF_ASC_NODE":"226.6253","APOAPSIS":"548.743","RCS_SIZE":"LARGE","GP_ID":"191235259","PERIOD":"95.592","TLE_LINE1":"1 48300U 21036AA  21340.95207209  .00001456  00000-0  11668-3 0  9992","SITE":"AFETR","OBJECT_ID":"2021-036AA","MEAN_ELEMENT_THEORY":"SGP4","TLE_LINE2":"2 48300  53.0565 226.6253 0002198  67.4496 292.6726 15.06397519 33997","MEAN_MOTION":"15.06397519","ECCENTRICITY":"0.00021980","MEAN_ANOMALY":"292.6726","REV_AT_EPOCH":"3399","MEAN_MOTION_DDOT":"0.0000000000000","SEMIMAJOR_AXIS":"6925.356","REF_FRAME":"TEME","BSTAR":"0.00011668000000","MEAN_MOTION_DOT":"0.00001456","OBJECT_NAME":"STARLINK-2538","NORAD_CAT_ID":"48300","INCLINATION":"53.0565","COUNTRY_CODE":"US","OBJECT_TYPE":"PAYLOAD","LAUNCH_DATE":"2021-04-29","ELEMENT_SET_NO":"999","EPHEMERIS_TYPE":"0"},{"SEMIMAJOR_AXIS":"6925.370","REF_FRAME":"TEME","BSTAR":"0.00011314000000","REV_AT_EPOCH":"3398","MEAN_MOTION_DDOT":"0.0000000000000","MEAN_ANOMALY":"290.0713","ECCENTRICITY":"0.00022250","MEAN_ELEMENT_THEORY":"SGP4","MEAN_MOTION":"15.06393061","TLE_LINE2":"2 48301  53.0535 226.6243 0002225  70.0516 290.0713 15.06393061 33983","EPHEMERIS_TYPE":"0","ELEMENT_SET_NO":"999","OBJECT_TYPE":"PAYLOAD","LAUNCH_DATE":"2021-04-29","INCLINATION":"53.0535","COUNTRY_CODE":"US","NORAD_CAT_ID":"48301","MEAN_MOTION_DOT":"0.00001404","OBJECT_NAME":"STARLINK-2537","ARG_OF_PERICENTER":"70.0516","DECAY_DATE":null,"PERIAPSIS":"545.694","TIME_SYSTEM":"UTC","CLASSIFICATION_TYPE":"U","TLE_LINE1":"1 48301U 21036AB  21340.94839173  .00001404  00000-0  11314-3 0  9994","SITE":"AFETR","OBJECT_ID":"2021-036AB","PERIOD":"95.593","APOAPSIS":"548.776","RCS_SIZE":"LARGE","GP_ID":"191236010","RA_OF_ASC_NODE":"226.6243","CENTER_NAME":"EARTH","FILE":"3234296","EPOCH":"2021-12-06T22:45:41.045472"},{"CLASSIFICATION_TYPE":"U","TIME_SYSTEM":"UTC","PERIAPSIS":"545.412","ARG_OF_PERICENTER":"66.0119","DECAY_DATE":null,"RA_OF_ASC_NODE":"226.6479","EPOCH":"2021-12-06T22:40:22.423872","FILE":"3234296","CENTER_NAME":"EARTH","SITE":"AFETR","OBJECT_ID":"2021-036AC","TLE_LINE1":"1 48302U 21036AC  21340.94470398 -.00000284  00000-0 -12844-6 0  9994","GP_ID":"191234758","RCS_SIZE":"LARGE","APOAPSIS":"549.061","PERIOD":"95.593","ECCENTRICITY":"0.00026350","TLE_LINE2":"2 48302  53.0563 226.6479 0002635  66.0119 294.1146 15.06392533 33983","MEAN_MOTION":"15.06392533","MEAN_ELEMENT_THEORY":"SGP4","REF_FRAME":"TEME","BSTAR":"-0.00000012844000","SEMIMAJOR_AXIS":"6925.371","MEAN_ANOMALY":"294.1146","MEAN_MOTION_DDOT":"0.0000000000000","REV_AT_EPOCH":"3398","NORAD_CAT_ID":"48302","OBJECT_NAME":"STARLINK-2556","MEAN_MOTION_DOT":"-0.00000284","ELEMENT_SET_NO":"999","EPHEMERIS_TYPE":"0","INCLINATION":"53.0563","COUNTRY_CODE":"US","LAUNCH_DATE":"2021-04-29","OBJECT_TYPE":"PAYLOAD"},{"ELEMENT_SET_NO":"999","EPHEMERIS_TYPE":"0","INCLINATION":"53.0537","COUNTRY_CODE":"US","LAUNCH_DATE":"2021-04-29","OBJECT_TYPE":"PAYLOAD","NORAD_CAT_ID":"48303","OBJECT_NAME":"STARLINK-2530","MEAN_MOTION_DOT":"0.00000348","BSTAR":"0.00004231800000","REF_FRAME":"TEME","SEMIMAJOR_AXIS":"6925.389","MEAN_ANOMALY":"289.8519","MEAN_MOTION_DDOT":"0.0000000000000","REV_AT_EPOCH":"3398","ECCENTRICITY":"0.00021180","MEAN_MOTION":"15.06386808","TLE_LINE2":"2 48303  53.0537 226.6548 0002118  70.2698 289.8519 15.06386808 33980","MEAN_ELEMENT_THEORY":"SGP4","SITE":"AFETR","OBJECT_ID":"2021-036AD","TLE_LINE1":"1 48303U 21036AD  21340.94101756  .00000348  00000-0  42318-4 0  9990","GP_ID":"191234508","RCS_SIZE":"LARGE","APOAPSIS":"548.721","PERIOD":"95.593","RA_OF_ASC_NODE":"226.6548","EPOCH":"2021-12-06T22:35:03.917184","FILE":"3234296","CENTER_NAME":"EARTH","PERIAPSIS":"545.787","ARG_OF_PERICENTER":"70.2698","DECAY_DATE":null,"CLASSIFICATION_TYPE":"U","TIME_SYSTEM":"UTC"}];
